COSMOS 2426 (717)       
1 29671U 06062B   19218.58188633 -.00000007  00000-0  10000-3 0  9994
2 29671  65.0968 278.5871 0021175 179.2557 183.3367  2.12961877 98170
COSMOS 2433 (720)       
1 32275U 07052A   19219.55445394 -.00000035  00000-0  10000-3 0  9997
2 32275  65.8719  39.4223 0001233 203.5492 164.2486  2.13104408 91705
COSMOS 2432 (719)       
1 32276U 07052B   19219.62300889 -.00000034  00000-0  10000-3 0  9994
2 32276  65.8837  39.5049 0009402 342.7099  28.6782  2.13103815 91702
COSMOS 2434 (721)       
1 32393U 07065A   19220.15327477 -.00000000  00000-0  00000+0 0  9998
2 32393  64.6996 277.2095 0003183 139.6694 214.9595  2.13103081 90415
COSMOS 2436 (723)       
1 32395U 07065C   19219.63657020 -.00000003  00000-0  10000-3 0  9999
2 32395  64.7095 277.2828 0014572 354.7879  15.9813  2.13104479 90347
COSMOS 2456 (730)       
1 36111U 09070A   19219.62342669  .00000012  00000-0  00000-0 0  9991
2 36111  64.2063 156.8666 0005737 308.0964 173.1924  2.13103045 75070
COSMOS 2457 (733)       
1 36112U 09070B   19219.50548286  .00000014  00000-0  00000-0 0  9994
2 36112  64.1870 156.7704 0004938 185.4409 330.1800  2.13101604 75078
COSMOS 2459 (731)       
1 36400U 10007A   19220.23451757 -.00000034  00000-0  10000-3 0  9991
2 36400  65.7754  38.4107 0025270 355.8032  29.3033  2.13102200 73443
COSMOS 2461 (735)       
1 36401U 10007B   19218.47718225 -.00000037  00000-0  10000-3 0  9994
2 36401  65.7722  38.4412 0008890  72.8189 314.6664  2.13102178 73406
COSMOS 2460 (732)       
1 36402U 10007C   19219.74828653 -.00000035  00000-0  10000-3 0  9991
2 36402  65.7638  38.3619 0002281  97.6380 224.7363  2.13101494 73426
COSMOS 2464 (736)       
1 37139U 10041C   19219.55753347 -.00000003  00000-0  00000-0 0  9994
2 37139  64.3001 276.8258 0023376   9.1845 114.3190  2.13100748 69498
COSMOS 2474 (742)       
1 37829U 11055A   19217.46531067  .00000035  00000-0  00000+0 0  9990
2 37829  64.5262 157.8313 0010346 251.8771 229.9738  2.13101953 61023
COSMOS 2476 (744)       
1 37867U 11064A   19219.70139185  .00000013  00000-0  00000+0 0  9992
2 37867  64.5050 157.8075 0020327 242.7990 200.6575  2.13102003 60422
COSMOS 2477 (745)       
1 37868U 11064B   19219.65925304  .00000014  00000-0  00000+0 0  9994
2 37868  64.5154 157.8615 0017909 244.5192 345.2622  2.13101866 60373
COSMOS 2475 (743)       
1 37869U 11064C   19219.55353903  .00000015  00000-0  00000+0 0  9995
2 37869  64.5208 157.8643 0022439 265.2300 200.5827  2.13102216 60381
COSMOS 2485 (747)       
1 39155U 13019A   19219.00430459  .00000023  00000-0  00000-0 0  9999
2 39155  64.6745 158.0314 0020688 238.2960  75.0847  2.13102074 48871
COSMOS 2492 (754)       
1 39620U 14012A   19219.55367096 -.00000036  00000-0  10000-3 0  9995
2 39620  65.6454  38.1947 0012292 334.5763  75.3471  2.13103339 41840
COSMOS 2500 (755)       
1 40001U 14032A   19219.39592922 -.00000036  00000-0  00000-0 0  9998
2 40001  65.5931  38.1394 0005953 185.3524 324.8805  2.13102707 40056
COSMOS 2501 (702K)      
1 40315U 14075A   19219.80413674 -.00000004  00000-0  00000-0 0  9990
2 40315  64.0199 277.8791 0017465 208.4650  52.4661  2.13098765 36467
COSMOS 2514 (751)       
1 41330U 16008A   19219.49543270 -.00000037  00000-0  00000-0 0  9993
2 41330  65.3916  38.0856 0008908 202.3245 206.0242  2.13103140 27220
COSMOS 2516 (753)       
1 41554U 16032A   19220.45130426 -.00000000  00000-0  00000+0 0  9990
2 41554  64.2419 277.8380 0014308 217.9312  94.3016  2.13101780 24847
COSMOS 2522 (752)       
1 42939U 17055A   19219.60735575 -.00000005  00000-0  00000-0 0  9991
2 42939  64.4758 277.9562 0009076 240.9691  10.3104  2.13101952 14585
COSMOS 2527 (756)       
1 43508U 18053A   19220.07197561  .00000008  00000-0  00000+0 0  9994
2 43508  64.8389 157.7767 0008462 241.5595  37.4844  2.13102713  8885
COSMOS 2529 (757)       
1 43687U 18086A   19219.66621403 -.00000004  00000-0  00000+0 0  9995
2 43687  64.6867 277.9877 0011135 263.9357 348.2028  2.13102094  5891
COSMOS 2534 (758)       
1 44299U 19030A   19219.65031787 -.00000004  00000-0  00000+0 0  9994
2 44299  64.7570 277.7778 0013759 282.7127  92.4424  2.13102018  1541
